{
    "links": {
        "self": "http://www.neowsapp.com/rest/v1/neo/3878597?api_key=iIulBulltgU6a56xZRHN4H3l9WmuAYTsLGpBGhQ2"
    },
    "id": "3878597",
    "neo_reference_id": "3878597",
    "name": "(2019 TQ3)",
    "designation": "2019 TQ3",
    "nasa_jpl_url": "http://ssd.jpl.nasa.gov/sbdb.cgi?sstr=3878597",
    "absolute_magnitude_h": 25.9,
    "estimated_diameter": {
        "kilometers": {
            "estimated_diameter_min": 0.0175612318,
            "estimated_diameter_max": 0.0392681082
        },
        "meters": {
            "estimated_diameter_min": 17.561231848,
            "estimated_diameter_max": 39.2681081809
        },
        "miles": {
            "estimated_diameter_min": 0.0109120402,
            "estimated_diameter_max": 0.0244000636
        },
        "feet": {
            "estimated_diameter_min": 57.6155918963,
            "estimated_diameter_max": 128.8323800441
        }
    },
    "is_potentially_hazardous_asteroid": false,
    "close_approach_data": [
        {
            "close_approach_date": "2019-10-13",
            "close_approach_date_full": "2019-Oct-13 00:41",
            "epoch_date_close_approach": 1570927260000,
            "relative_velocity": {
                "kilometers_per_second": "18.1740006521",
                "kilometers_per_hour": "65426.4023476291",
                "miles_per_hour": "40653.4220587254"
            },
            "miss_distance": {
                "astronomical": "0.0265071378",
                "lunar": "10.3112766042",
                "kilometers": "3965411.354676486",
                "miles": "2463992.3589520668"
            },
            "orbiting_body": "Earth"
        }
    ],
    "orbital_data": {
        "orbit_id": "3",
        "orbit_determination_date": "2019-12-04 07:19:54",
        "first_observation_date": "2019-10-06",
        "last_observation_date": "2019-10-11",
        "data_arc_in_days": 5,
        "observations_used": 15,
        "orbit_uncertainty": "8",
        "minimum_orbit_intersection": ".0234284",
        "jupiter_tisserand_invariant": "3.637",
        "epoch_osculation": "2458763.5",
        "eccentricity": ".6390187549943369",
        "semi_major_axis": "1.915852081750705",
        "inclination": "9.402037513193896",
        "ascending_node_longitude": "192.113373099787",
        "orbital_period": "968.5931418877904",
        "perihelion_distance": ".691586669717061",
        "perihelion_argument": "266.2870670336341",
        "aphelion_distance": "3.140117493784349",
        "perihelion_time": "2458816.516213373631",
        "mean_anomaly": "340.2953004836388",
        "mean_motion": ".3716730838072621",
        "equinox": "J2000",
        "orbit_class": {
            "orbit_class_type": "APO",
            "orbit_class_description": "Near-Earth asteroid orbits which cross the Earth’s orbit similar to that of 1862 Apollo",
            "orbit_class_range": "a (semi-major axis) > 1.0 AU; q (perihelion) < 1.017 AU"
        }
    },
    "is_sentry_object": false
}